STARLINK-5075           
1 53990U 22125AC  22292.50001157 -.00070227  00000+0 -49836-3 0  9996
2 53990  53.2188  24.6009 0002253  20.9566  75.9041 15.73279239  2529
STARLINK-5118           
1 53991U 22125AD  22291.91667824 -.00548706  00000+0 -30071-2 0  9992
2 53991  53.2174  26.9597 0001771  29.0778 262.4678 15.80505594  1309
STARLINK-5108           
1 53992U 22125AE  22291.91667824 -.00000398  00000+0  15908-5 0  9997
2 53992  53.2172  27.4747 0002018  28.5464   3.9895 15.73204224  1309
STARLINK-5121           
1 53993U 22125AF  22292.50001157  .00006043  00000+0  47501-4 0  9990
2 53993  53.2191  24.6001 0002206  32.0139  64.3816 15.73172304  2523
STARLINK-5125           
1 53994U 22125AG  22292.50001157  .00007868  00000+0  60445-4 0  9999
2 53994  53.2183  24.5930 0002387  27.9968  72.4915 15.73193526  2527
STARLINK-5097           
1 53995U 22125AH  22291.91667824 -.00000391  00000+0  16456-5 0  9992
2 53995  53.2172  27.4733 0002414  25.7203   7.4117 15.73204219  1307
STARLINK-5131           
1 53996U 22125AJ  22292.50001157  .00036073  00000+0  26050-3 0  9994
2 53996  53.2187  24.5921 0002249  24.4792  76.6595 15.73183735  2528
STARLINK-5130           
1 53997U 22125AK  22292.50001157 -.00005669  00000+0 -36046-4 0  9991
2 53997  53.2181  24.5955 0002077  28.5367  70.8093 15.73162675  2521
STARLINK-5128           
1 53998U 22125AL  22292.25001157 -.00010411  00000+0 -69906-4 0  9996
2 53998  53.2182  25.8250 0002165  29.7059  95.9694 15.73175784  2489
STARLINK-5079           
1 53999U 22125AM  22292.25001157 -.00022455  00000+0 -15583-3 0  9999
2 53999  53.2187  25.8295 0001984  30.2143  92.9826 15.73222514  2481
STARLINK-5088           
1 54000U 22125AN  22291.91667824 -.00000388  00000+0  16590-5 0  9995
2 54000  53.2172  27.4650 0001866  32.6739   4.6309 15.73204223  1301
STARLINK-5105           
1 54001U 22125AP  22292.25001157  .00008192  00000+0  62811-4 0  9991
2 54001  53.2184  25.8224 0001841  27.0748  99.8351 15.73170892  2460
STARLINK-5109           
1 54002U 22125AQ  22292.25001157 -.00018536  00000+0 -12795-3 0  9992
2 54002  53.2224  25.7839 0001813  31.6359 114.8814 15.73196048  2468
STARLINK-5114           
1 54003U 22125AR  22291.91667824 -.00000379  00000+0  17271-5 0  9995
2 54003  53.2172  27.4673 0002198  28.0626   8.0500 15.73204216  1305
STARLINK-5129           
1 54004U 22125AS  22292.58334491  .00062899  00000+0  44987-3 0  9997
2 54004  53.2190  24.1717 0002622  20.4601 197.0651 15.73164076  2520
STARLINK-5135           
1 54005U 22125AT  22292.25001157 -.00047555  00000+0 -33608-3 0  9994
2 54005  53.2182  25.8211 0002048  29.5038  97.9166 15.73214358  2466
STARLINK-5096           
1 54006U 22125AU  22291.91667824 -.00000347  00000+0  19486-5 0  9993
2 54006  53.2172  27.4541 0001817  27.4843  15.1855 15.73204205  1303
STARLINK-5132           
1 54007U 22125AV  22291.91667824 -.00000422  00000+0  14203-5 0  9990
2 54007  53.2172  27.4589 0001964  39.4931   0.7923 15.73204240  1305
STARLINK-5145           
1 54008U 22125AW  22292.25001157 -.00543648  00000+0 -35520-2 0  9995
2 54008  53.2183  25.5766 0007877 269.2055 337.0216 15.76543489  2477
STARLINK-5099           
1 54009U 22125AX  22292.25001157  .00090406  00000+0  64164-3 0  9990
2 54009  53.2187  25.8154 0002242  35.9345  94.3527 15.73199313  2464
STARLINK-5127           
1 54010U 22125AY  22292.58334491 -.00881012  00000+0 -55501-2 0  9995
2 54010  53.2185  23.9598 0002333 319.0380   5.2588 15.78310304  2526
STARLINK-5124           
1 54011U 22125AZ  22292.25001157 -.00025335  00000+0 -17651-3 0  9993
2 54011  53.2183  25.8168 0001834  37.4390  92.3451 15.73214289  2465
STARLINK-5126           
1 54012U 22125BA  22292.25001157  .00080633  00000+0  57384-3 0  9991
2 54012  53.2191  25.8088 0001913  27.7101 106.2142 15.73182532  2463
STARLINK-5098           
1 54013U 22125BB  22291.91667824 -.00000371  00000+0  17850-5 0  9991
2 54013  53.2172  27.4515 0002430  29.9919  13.8701 15.73204214  1300
STARLINK-5116           
1 54014U 22125BC  22292.58334491 -.00043413  00000+0 -30586-3 0  9991
2 54014  53.2191  24.1633 0002376  19.9111 202.3627 15.73244204  2529
STARLINK-5055           
1 54015U 22125BD  22292.25001157 -.00019106  00000+0 -13180-3 0  9999
2 54015  53.2185  25.8058 0002120  30.6989 104.4334 15.73234696  2466
FALCON 9 DEB            
1 54016U 22125BE  22292.26849498  .00275097  40283-4  73379-3 0  9998
2 54016  53.2332  24.7437 0010480 342.0401  18.0257 15.93996229  2437
FALCON 9 DEB            
1 54017U 22125BF  22292.38853471  .00326977  53303-4  81484-3 0  9995
2 54017  53.2314  24.0667 0008637 343.9226  16.1529 15.95261907  2455
FALCON 9 DEB            
1 54018U 22125BG  22291.68947623  .00343434  58491-4  80234-3 0  9993
2 54018  53.2270  27.5148 0010698 319.7346  40.2891 15.96399912  2340
FALCON 9 DEB            
1 54019U 22125BH  22292.37660685  .00331266  55316-4  76223-3 0  9997
2 54019  53.2261  23.9756 0008230 313.1121  46.9221 15.96728038  2451
CENTISPACE-1 S5         
1 54020U 22126A   22292.04433949  .00000709  00000+0  19272-3 0  9996
2 54020  54.9974 141.2476 0013026 320.9758  39.0037 14.57916950  1686
CENTISPACE-1 S6         
1 54021U 22126B   22292.45374491  .00003494  00000+0  79043-3 0  9994
2 54021  54.9982 139.6027 0014845 319.8424  40.1485 14.58173969  1738
CZ-11H R/B              
1 54022U 22126C   22292.54043995  .00026378  00000+0  45862-3 0  9995
2 54022  56.1501 136.8780 0338791 335.9934  22.5247 15.06330683  1809
GAZELLE                 
1 54023U 22127A   22292.47367042 -.00000043  00000+0  00000+0 0  9994
2 54023  98.3140 291.5373 0012403 264.5248  95.4526 14.41643997  1697
ELECTRON KICK STAGE R/B 
1 54024U 22127B   22292.43168164  .00004592  00000+0  62287-3 0  9996
2 54024  98.2931 292.0356 0141254 345.1054  14.6002 14.72688067  1716
ELECTRON R/B            
1 54025U 22127C   22292.23201617  .00123209  53356-5  12216-2 0  9997
2 54025  98.3333 292.7557 0343918 179.3514 180.8186 15.17161210  1741
GALAXY 33               
1 54026U 22128A   22291.11894948 -.00000122  00000+0  00000+0 0  9996
2 54026   1.0559 193.4855 0825299 178.1478 182.6684  1.12624848   321
GALAXY 34               
1 54027U 22128B   22292.46650029 -.00000271  00000+0  00000+0 0  9991
2 54027  14.3392 190.4074 5739417 182.8862 144.5342  1.98892396   332
FALCON 9 R/B            
1 54028U 22128C   22291.55299712  .00005195  00000+0  14593-2 0  9993
2 54028  26.8513 187.8414 5935811 187.5757 156.4125  4.11983991   392
ASO-S                   
1 54029U 22129A   22292.44805817 -.00000444  00000+0 -10124-3 0  9994
2 54029  98.2683 297.7835 0013641 233.4648 126.5370 14.50853522  1510
CZ-2D R/B               
1 54030U 22129B   22291.93849323  .00000415  00000+0  10703-3 0  9998
2 54030  98.1946 297.1885 0019618  85.6702 274.6736 14.54803983  1443
COSMOS 2559 [GLONASS-K] 
1 54031U 22130A   22291.65551426 -.00000080  00000+0  00000+0 0  9998
2 54031  64.7803   1.3672 0001982 330.0095  38.5077  2.12838318   187
FREGAT R/B              
1 54032U 22130B   22286.02640266 -.00000089  00000+0  00000+0 0  9994
2 54032  64.7735   1.5414 0026318 173.8175 185.0931  2.11041190    45
ANGOSAT 2               
1 54033U 22131A   22291.66671459  .00000069  00000+0  00000+0 0  9997
2 54033   0.0330  22.5449 0001516  64.0619 239.4033  0.98860887    62
2022-131B               
1 54034U 22131B   22291.83086198 -.00000074  00000+0  00000+0 0  9994
2 54034   0.1589 285.0405 0081139 172.8574 263.0389  0.97748209    64
HJ-2E                   
1 54035U 22132A   22292.52680197  .00010641  00000+0  44485-3 0  9991
2 54035  97.3948 297.9890 0011705 247.3243 268.6643 15.23721879   990
2022-132B               
1 54036U 22132B   22292.54787238  .00116173  00000+0  36033-2 0  9994
2 54036  97.3569 298.0626 0033786 302.2913 156.5572 15.32381939  1005
2022-132C               
1 54037U 22132C   22292.55591348  .00014621  00000+0  14221-2 0  9991
2 54037  97.6516 297.7550 0189160 150.0590 211.1421 14.80107784   973
2022-132D               
1 54038U 22132D   22292.50475485  .00031808  00000+0  15697-2 0  9994
2 54038  97.5919 297.9958 0099570 210.5353 301.3555 15.13502028   986
CZ-2C R/B               
1 54039U 22132E   22292.49512593  .00005133  00000+0  26581-3 0  9992
2 54039  97.2521 297.5793 0047390 188.2036 325.1790 15.15641442   989
2022-132F               
1 54040U 22132F   22292.50448519  .00033990  00000+0  19022-2 0  9995
2 54040  97.1598 297.6537 0122697 201.3637 158.2245 15.07080173   988
2022-132G               
1 54041U 22132G   22292.58525678  .00016753  00000+0  14505-2 0  9995
2 54041  97.1922 297.5743 0151385 146.8621 214.2105 14.88688028   989
2022-133A               
1 54042U 22133A   22292.32068264  .00026548  00000+0  10461-2 0  9992
2 54042  34.9992 258.2545 0009193 309.8106 166.2801 15.24635341   696
2022-133B               
1 54043U 22133B   22292.32011881  .00012144  00000+0  47860-3 0  9997
2 54043  34.9980 258.2495 0009172 317.1343 158.7823 15.24750477   698
2022-133C               
1 54044U 22133C   22292.11247257  .00029589  00000+0  11541-2 0  9990
2 54044  34.9991 259.5552 0009728 316.0983 100.1604 15.24949153   660
2022-133D               
1 54045U 22133D   22292.31910837  .00017727  00000+0  69016-3 0  9996
2 54045  34.9978 258.2428 0009303 325.3438 150.2463 15.25096788   691
2022-133E               
1 54046U 22133E   22292.32145572 -.00000038  00000+0  00000+0 0  9996
2 54046  35.0044 258.2816 0006941 290.2585 185.9886 15.24281906   698
2022-134A               
1 54048U 22134A   22291.85774249  .00000035  00000+0  10000-3 0  9996
2 54048  26.3142 300.3171 8017773 181.0470 309.7680  1.33271706    47
2022-134B               
1 54049U 22134B   22292.32448563  .00000035  00000+0 -32972-4 0  9991
2 54049  26.8425 300.1535 8047672 181.2853 173.1854  1.34299520    59
